NORAD_CAT_ID,OBJECT_NAME,OBJECT_TYPE,EPOCH,MEAN_MOTION,ECCENTRICITY,INCLINATION,RA_OF_ASC_NODE,ARG_OF_PERICENTER,MEAN_ANOMALY,BSTAR,MEAN_MOTION_DOT,MEAN_MOTION_DDOT,TLE_LINE0,TLE_LINE1,TLE_LINE2,SEMIMAJOR_AXIS,PERIOD,APOGEE,PERIGEE,DECAYED
54055.0,STARLINK-5158,PAYLOAD,2023-02-03 06:00:12,15.0884536,0.0001323,53.2191,19.023,94.904,265.2103,0.00010239,1.342e-05,0.0,0 STARLINK-5158,1 54055U 22136E   23034.25014165  .00001342  00000-0  10239-3 0  9997,2 54055  53.2191  19.0230 0001323  94.9040 265.2103 15.08845360 16660,6917.864,95.437,540.644,538.814,0.0
54055.0,STARLINK-5158,PAYLOAD,2023-02-03 09:10:58,15.08846518,0.0001361,53.2184,18.4279,89.1439,270.9709,0.00015922,2.247e-05,0.0,0 STARLINK-5158,1 54055U 22136E   23034.38262153  .00002247  00000-0  15922-3 0  9992,2 54055  53.2184  18.4279 0001361  89.1439 270.9709 15.08846518 16209,6917.86,95.437,540.667,538.784,0.0
54055.0,STARLINK-5158,PAYLOAD,2023-02-04 07:26:22,15.0884907,0.0001225,53.2181,14.2644,91.5087,268.6046,0.00026566,3.944e-05,0.0,0 STARLINK-5158,1 54055U 22136E   23035.30998220  .00003944  00000-0  26566-3 0  9997,2 54055  53.2181  14.2644 0001225  91.5087 268.6046 15.08849070 16823,6917.853,95.437,540.565,538.87,0.0
54055.0,STARLINK-5158,PAYLOAD,2023-02-04 09:01:45,15.08851068,0.0001223,53.2179,13.967,93.3108,266.8024,0.00029644,4.435e-05,0.0,0 STARLINK-5158,1 54055U 22136E   23035.37622138  .00004435  00000-0  29644-3 0  9992,2 54055  53.2179  13.9670 0001223  93.3108 266.8024 15.08851068 16351,6917.847,95.437,540.558,538.866,0.0
54055.0,STARLINK-5158,PAYLOAD,2023-02-05 05:41:46,15.08836941,0.0001265,53.218,10.0996,88.3765,271.7372,-3.9492e-05,-9.16e-06,0.0,0 STARLINK-5158,1 54055U 22136E   23036.23734828 -.00000916  00000-0 -39492-4 0  9993,2 54055  53.2180  10.0996 0001265  88.3765 271.7372 15.08836941 16962,6917.89,95.438,540.63,538.88,0.0
54055.0,STARLINK-5158,PAYLOAD,2023-02-05 07:17:10,15.08836943,0.0001285,53.2182,9.804,94.8641,265.2498,-1.4826e-05,-5.24e-06,0.0,0 STARLINK-5158,1 54055U 22136E   23036.30358836 -.00000524  00000-0 -14826-4 0  9991,2 54055  53.2182   9.8040 0001285  94.8641 265.2498 15.08836943 16494,6917.89,95.438,540.644,538.866,0.0
54055.0,STARLINK-5158,PAYLOAD,2023-02-05 21:35:38,15.08839747,0.0001359,53.2176,7.1265,101.162,258.9525,0.00014873,2.08e-05,0.0,0 STARLINK-5158,1 54055U 22136E   23036.89974970  .00002080  00000-0  14873-3 0  9996,2 54055  53.2176   7.1265 0001359 101.1620 258.9525 15.08839747 16583,6917.881,95.438,540.686,538.806,0.0
54055.0,STARLINK-5158,PAYLOAD,2023-02-06 05:32:33,15.08853904,0.0001216,53.2181,5.6414,92.9907,267.1224,0.00038759,5.888e-05,0.0,0 STARLINK-5158,1 54055U 22136E   23037.23094505  .00005888  00000-0  38759-3 0  9990,2 54055  53.2181   5.6414 0001216  92.9907 267.1224 15.08853904 17114,6917.838,95.437,540.544,538.862,0.0
54055.0,STARLINK-5158,PAYLOAD,2023-02-06 07:07:56,15.08857664,0.0001247,53.218,5.3438,92.4136,267.6999,0.00058993,9.118e-05,0.0,0 STARLINK-5158,1 54055U 22136E   23037.29718471  .00009118  00000-0  58993-3 0  9993,2 54055  53.2180   5.3438 0001247  92.4136 267.6999 15.08857664 16647,6917.826,95.436,540.554,538.829,0.0
54055.0,STARLINK-5158,PAYLOAD,2023-02-06 21:26:25,15.08850728,0.0001528,53.2178,2.6682,85.5063,274.6104,0.00040551,6.173e-05,0.0,0 STARLINK-5158,1 54055U 22136E   23037.89334757  .00006173  00000-0  40551-3 0  9999,2 54055  53.2178   2.6682 0001528  85.5063 274.6104 15.08850728 17213,6917.848,95.437,540.77,538.656,0.0
54055.0,STARLINK-5158,PAYLOAD,2023-02-07 06:58:43,15.08875068,0.0001203,53.218,0.8834,80.01,280.1028,0.0014356,0.00022655,0.0,0 STARLINK-5158,1 54055U 22136E   23038.29078110  .00022655  00000-0  14356-2 0  9998,2 54055  53.2180   0.8834 0001203  80.0100 280.1028 15.08875068 17274,6917.773,95.435,540.47,538.806,0.0
54055.0,STARLINK-5158,PAYLOAD,2023-02-07 21:17:11,15.08853537,8.43e-05,53.2188,358.207,84.1664,275.9424,0.0011074,0.00017387,0.0,0 STARLINK-5158,1 54055U 22136E   23038.88694341  .00017387  00000-0  11074-2 0  9993,2 54055  53.2188 358.2070 0000843  84.1664 275.9424 15.08853537 17362,6917.839,95.437,540.287,539.121,0.0
54055.0,STARLINK-5158,PAYLOAD,2023-02-08 08:24:53,15.08878196,0.0001124,53.2187,356.1267,89.6484,270.4637,0.0019191,0.00030419,0.0,0 STARLINK-5158,1 54055U 22136E   23039.35061573  .00030419  00000-0  19191-2 0  9990,2 54055  53.2187 356.1267 0001124  89.6484 270.4637 15.08878196 17431,6917.764,95.435,540.406,538.851,0.0
54055.0,STARLINK-5158,PAYLOAD,2023-02-09 06:40:17,15.08864521,7.13e-05,53.2189,351.9638,96.3458,263.7615,0.0030769,0.00049055,0.0,0 STARLINK-5158,1 54055U 22136E   23040.27798541  .00049055  00000-0  30769-2 0  9995,2 54055  53.2189 351.9638 0000713  96.3458 263.7615 15.08864521 17570,6917.805,95.436,540.164,539.177,0.0
54055.0,STARLINK-5158,PAYLOAD,2023-02-09 22:34:09,15.08859837,6.37e-05,53.2186,348.9916,67.0025,293.1035,0.0025568,0.0004066,0.0,0 STARLINK-5158,1 54055U 22136E   23040.94039184  .00040660  00000-0  25568-2 0  9994,2 54055  53.2186 348.9916 0000637  67.0025 293.1035 15.08859837 17670,6917.82,95.436,540.125,539.244,0.0
54055.0,STARLINK-5158,PAYLOAD,2023-02-10 03:20:19,15.08864011,7.39e-05,53.2186,348.0994,69.9057,290.2015,0.0024622,0.00039141,0.0,0 STARLINK-5158,1 54055U 22136E   23041.13911077  .00039141  00000-0  24622-2 0  9998,2 54055  53.2186 348.0994 0000739  69.9057 290.2015 15.08864011 17223,6917.807,95.436,540.183,539.161,0.0
54055.0,STARLINK-5158,PAYLOAD,2023-02-11 03:11:05,15.08873719,0.0001117,53.219,343.6373,62.9782,297.1325,0.0019404,0.00030757,0.0,0 STARLINK-5158,1 54055U 22136E   23042.13270764  .00030757  00000-0  19404-2 0  9996,2 54055  53.2190 343.6373 0001117  62.9782 297.1325 15.08873719 17853,6917.777,95.435,540.415,538.87,0.0
54055.0,STARLINK-5158,PAYLOAD,2023-02-12 07:48:05,15.08829634,9.1e-05,53.2182,338.287,85.3984,274.7112,0.0017344,0.00027415,0.0,0 STARLINK-5158,1 54055U 22136E   23043.32506138  .00027415  00000-0  17344-2 0  9993,2 54055  53.2182 338.2870 0000910  85.3984 274.7112 15.08829634 18032,6917.912,95.438,540.407,539.148,0.0
54055.0,STARLINK-5158,PAYLOAD,2023-02-13 04:28:04,15.08895616,8.28e-05,53.2178,334.4209,114.5506,245.5573,0.0022919,0.00036432,0.0,0 STARLINK-5158,1 54055U 22136E   23044.18616572  .00036432  00000-0  22919-2 0  9995,2 54055  53.2178 334.4209 0000828 114.5506 245.5573 15.08895616 18168,6917.71,95.434,540.148,539.003,0.0
54055.0,STARLINK-5158,PAYLOAD,2023-02-13 12:25:00,15.08855019,0.0002593,53.2177,332.9347,73.7827,286.345,0.0014532,0.00022925,0.0,0 STARLINK-5158,1 54055U 22136E   23044.51737079  .00022925  00000-0  14532-2 0  9992,2 54055  53.2177 332.9347 0002593  73.7827 286.3450 15.08855019 18212,6917.834,95.437,541.493,537.906,0.0
54055.0,STARLINK-5158,PAYLOAD,2023-02-14 12:15:46,15.08843049,0.0001622,53.2173,328.4739,75.6133,284.5039,0.0016329,0.00025797,0.0,0 STARLINK-5158,1 54055U 22136E   23045.51096059  .00025797  00000-0  16329-2 0  9995,2 54055  53.2173 328.4739 0001622  75.6133 284.5039 15.08843049 17881,6917.871,95.437,540.858,538.614,0.0
54055.0,STARLINK-5158,PAYLOAD,2023-02-14 18:37:19,15.08848328,0.0001257,53.2177,327.2835,85.3928,274.7208,0.0010749,0.00016864,0.0,0 STARLINK-5158,1 54055U 22136E   23045.77592240  .00016864  00000-0  10749-2 0  9991,2 54055  53.2177 327.2835 0001257  85.3928 274.7208 15.08848328 18406,6917.855,95.437,540.59,538.85,0.0
54055.0,STARLINK-5158,PAYLOAD,2023-02-15 12:06:33,15.08872652,0.0001499,53.218,324.0133,84.1162,276.0001,0.0025532,0.00040617,0.0,0 STARLINK-5158,1 54055U 22136E   23046.50456017  .00040617  00000-0  25532-2 0  9993,2 54055  53.2180 324.0133 0001499  84.1162 276.0001 15.08872652 18033,6917.781,95.435,540.683,538.609,0.0
54055.0,STARLINK-5158,PAYLOAD,2023-02-15 21:38:52,15.08867529,0.0001352,53.2187,322.2291,90.2099,269.9049,0.0021185,0.00033614,0.0,0 STARLINK-5158,1 54055U 22136E   23046.90199684  .00033614  00000-0  21185-2 0  9990,2 54055  53.2187 322.2291 0001352  90.2099 269.9049 15.08867529 18096,6917.796,95.436,540.597,538.726,0.0
54055.0,STARLINK-5158,PAYLOAD,2023-02-15 23:14:15,15.08872671,0.0001398,53.2183,321.9313,93.5413,266.5739,0.0025295,0.00040235,0.0,0 STARLINK-5158,1 54055U 22136E   23046.96823593  .00040235  00000-0  25295-2 0  9992,2 54055  53.2183 321.9313 0001398  93.5413 266.5739 15.08872671 18586,6917.781,95.435,540.613,538.678,0.0
54055.0,STARLINK-5158,PAYLOAD,2023-02-16 00:49:38,15.08874043,0.0001853,53.2196,321.6319,109.4752,250.644,0.001691,0.00026752,0.0,0 STARLINK-5158,1 54055U 22136E   23047.03447419  .00026752  00000-0  16910-2 0  9992,2 54055  53.2196 321.6319 0001853 109.4752 250.6440 15.08874043 18591,6917.776,95.435,540.923,538.359,0.0
54055.0,STARLINK-5158,PAYLOAD,2023-02-16 21:29:40,15.08842607,0.000169,53.2182,317.7718,106.7238,253.394,0.0011919,0.00018733,0.0,0 STARLINK-5158,1 54055U 22136E   23047.89560262  .00018733  00000-0  11919-2 0  9992,2 54055  53.2182 317.7718 0001690 106.7238 253.3940 15.08842607 18241,6917.872,95.437,540.907,538.568,0.0
54055.0,STARLINK-5158,PAYLOAD,2023-02-16 23:05:03,15.08833108,0.0001338,53.2186,317.473,88.3373,271.7772,0.00064451,9.982e-05,0.0,0 STARLINK-5158,1 54055U 22136E   23047.96184371  .00009982  00000-0  64451-3 0  9999,2 54055  53.2186 317.4730 0001338  88.3373 271.7772 15.08833108 18737,6917.901,95.438,540.692,538.841,0.0
54055.0,STARLINK-5158,PAYLOAD,2023-02-17 02:15:49,15.08834561,0.0001458,53.2185,316.8763,82.9822,277.1336,0.00025338,3.746e-05,0.0,0 STARLINK-5158,1 54055U 22136E   23048.09432414  .00003746  00000-0  25338-3 0  9991,2 54055  53.2185 316.8763 0001458  82.9822 277.1336 15.08834561 18276,6917.897,95.438,540.771,538.753,0.0
54055.0,STARLINK-5158,PAYLOAD,2023-02-17 18:09:41,15.08822116,0.0001833,53.2196,313.9039,102.8217,257.298,1.6217e-05,-3e-07,0.0,0 STARLINK-5158,1 54055U 22136E   23048.75673589 -.00000030  00000-0  16217-4 0  9995,2 54055  53.2196 313.9039 0001833 102.8217 257.2980 15.08822116 18850,6917.935,95.439,541.068,538.532,0.0
